1 41980U 17008AJ  21219.45549029  .00002249  00000-0  84473-4 0  9998
2 41980  97.3236 287.0041 0005801 262.3810  97.6771 15.28203103248918
1 41980U 17008AJ  21220.11027275  .00003634  00000-0  13482-3 0  9997
2 41980  97.3236 287.6478 0005799 258.7850 101.2739 15.28211357249004
1 41980U 17008AJ  21220.17575125  .00003611  00000-0  13401-3 0  9991
2 41980  97.3236 287.7122 0005801 258.5173 101.5416 15.28211523249023
1 41980U 17008AJ  21220.83053325  .00003368  00000-0  12515-3 0  9991
2 41980  97.3235 288.3560 0005822 255.3826 104.6769 15.28214775249126
1 41980U 17008AJ  21221.15792370  .00003136  00000-0  11672-3 0  9993
2 41980  97.3234 288.6778 0005847 253.9766 106.0830 15.28216117249164
1 41980U 17008AJ  21221.15792370  .00003136  00000-0  11672-3 0  9993
2 41980  97.3234 288.6778 0005847 253.9766 106.0830 15.28216117249175
1 41980U 17008AJ  21221.87818137  .00002621  00000-0  97966-4 0  9991
2 41980  97.3232 289.3860 0005868 250.7198 109.3407 15.28218947249281
1 41980U 17008AJ  21222.46748214  .00002158  00000-0  81143-4 0  9990
2 41980  97.3231 289.9653 0005902 248.0292 112.0321 15.28220725249362
1 41980U 17008AJ  21222.46748214  .00002158  00000-0  81143-4 0  9990
2 41980  97.3231 289.9653 0005902 248.0292 112.0321 15.28220725249373
1 41980U 17008AJ  21223.44964866  .00001864  00000-0  70434-4 0  9996
2 41980  97.3228 290.9308 0005957 243.5651 116.4978 15.28223814249522
1 41980U 17008AJ  21223.90799269  .00001693  00000-0  64209-4 0  9993
2 41980  97.3227 291.3814 0005986 241.4420 118.6217 15.28224687249597
1 41980U 17008AJ  21224.16990327  .00001703  00000-0  64576-4 0  9999
2 41980  97.3226 291.6389 0006003 240.3149 119.7493 15.28225611249623
1 41980U 17008AJ  21224.49729176  .00001778  00000-0  67284-4 0  9998
2 41980  97.3230 291.9604 0006029 239.3298 120.7348 15.28226500249687
1 41980U 17008AJ  21225.47945427  .00001688  00000-0  64022-4 0  9993
2 41980  97.3229 292.9259 0006096 235.1252 124.9415 15.28229906249831
1 41980U 17008AJ  21225.80684125  .00001672  00000-0  63444-4 0  9995
2 41980  97.3228 293.2477 0006112 233.8237 126.2438 15.28231022249879
1 41980U 17008AJ  21226.46161370  .00001786  00000-0  67571-4 0  9991
2 41980  97.3228 293.8913 0006161 230.8974 129.1718 15.28234182249984
1 41980U 17008AJ  21226.91995289  .00002063  00000-0  77625-4 0  9995
2 41980  97.3227 294.3418 0006197 229.0405 131.0299 15.28237720250054
1 41980U 17008AJ  21227.18186107  .00002149  00000-0  80742-4 0  9995
2 41980  97.3226 294.5993 0006219 227.9461 132.1250 15.28239240250088
1 41980U 17008AJ  21227.44376910  .00002238  00000-0  83987-4 0  9990
2 41980  97.3226 294.8568 0006245 226.7622 133.3097 15.28240730250138
1 41980U 17008AJ  21227.77115491  .00002445  00000-0  91495-4 0  9994
2 41980  97.3223 295.1787 0006281 224.8317 135.2416 15.28241954250182
1 41980U 17008AJ  21228.42592392  .00002518  00000-0  94143-4 0  9990
2 41980  97.3224 295.8223 0006344 222.0446 138.0308 15.28245184250289
1 41980U 17008AJ  21228.49140086  .00002490  00000-0  93127-4 0  9996
2 41980  97.3224 295.8866 0006352 221.8402 138.2353 15.28245349250285
1 41980U 17008AJ  21228.88426169  .00002323  00000-0  87040-4 0  9990
2 41980  97.3224 296.2728 0006385 220.2535 139.8233 15.28246612250359
1 41980U 17008AJ  21229.47355208  .00002123  00000-0  79802-4 0  9996
2 41980  97.3225 296.8520 0006441 217.8054 142.2734 15.28248622250444
1 41980U 17008AJ  21229.99736501  .00002112  00000-0  79395-4 0  9997
2 41980  97.3225 297.3668 0006488 215.6637 144.4170 15.28250704250517
1 41980U 17008AJ  21230.45570106  .00002118  00000-0  79593-4 0  9993
2 41980  97.3224 297.8175 0006516 214.2206 145.8614 15.28252501250596
1 41980U 17008AJ  21230.84856008  .00001875  00000-0  70766-4 0  9996
2 41980  97.3223 298.2037 0006565 212.6572 147.4262 15.28253121250652
1 41980U 17008AJ  21231.17594257  .00001767  00000-0  66841-4 0  9997
2 41980  97.3223 298.5256 0006595 211.3954 148.6893 15.28253798250698
1 41980U 17008AJ  21231.43784813  .00001755  00000-0  66411-4 0  9995
2 41980  97.3223 298.7830 0006624 210.3102 149.7756 15.28254800250746
1 41980U 17008AJ  21231.63427724  .00001737  00000-0  65747-4 0  9993
2 41980  97.3223 298.9761 0006640 209.5172 150.5694 15.28255461250774
1 41980U 17008AJ  21232.41999227  .00001827  00000-0  68988-4 0  9992
2 41980  97.3223 299.7484 0006718 206.4292 153.6606 15.28258942250897
1 41980U 17008AJ  21232.81284942  .00001696  00000-0  64257-4 0  9996
2 41980  97.3222 300.1345 0006751 204.9051 155.1864 15.28259653250941
1 41980U 17008AJ  21232.81284942  .00001696  00000-0  64257-4 0  9996
2 41980  97.3222 300.1345 0006751 204.9051 155.1864 15.28259653250952
1 41980U 17008AJ  21233.46760981  .00002003  00000-0  75385-4 0  9997
2 41980  97.3222 300.7782 0006813 202.3736 157.7208 15.28263908251054
1 41980U 17008AJ  21233.92594129  .00002089  00000-0  78495-4 0  9996
2 41980  97.3221 301.2287 0006863 200.6691 159.4272 15.28266317251120
1 41980U 17008AJ  21234.12236890  .00002091  00000-0  78585-4 0  9990
2 41980  97.3221 301.4218 0006881 199.9666 160.1306 15.28267178251143
1 41980U 17008AJ  21234.12236890  .00002091  00000-0  78585-4 0  9990
2 41980  97.3221 301.4218 0006881 199.9666 160.1306 15.28267178251154
1 41980U 17008AJ  21234.90807941  .00002079  00000-0  78123-4 0  9991
2 41980  97.3220 302.1941 0006978 196.9466 163.1542 15.28270047251273
1 41980U 17008AJ  21235.16998324  .00001923  00000-0  72466-4 0  9997
2 41980  97.3220 302.4515 0007002 196.0363 164.0656 15.28270028251308
1 41980U 17008AJ  21235.49736157  .00001971  00000-0  74202-4 0  9990
2 41980  97.3220 302.7733 0007037 194.7958 165.3077 15.28271628251360
1 41980U 17008AJ  21235.75926427  .00001959  00000-0  73779-4 0  9994
2 41980  97.3220 303.0307 0007060 193.8428 166.2619 15.28272601251408
1 41980U 17008AJ  21236.41402034  .00002119  00000-0  79569-4 0  9993
2 41980  97.3219 303.6743 0007129 191.4285 168.6794 15.28275950251508
1 41980U 17008AJ  21236.80687365  .00001683  00000-0  63748-4 0  9995
2 41980  97.3218 304.0604 0007176 189.9831 170.1267 15.28275095251568
1 41980U 17008AJ  21237.46162619  .00002455  00000-0  91729-4 0  9996
2 41980  97.3218 304.7040 0007233 187.6705 172.4425 15.28282262251653
1 41980U 17008AJ  21237.46162619  .00002455  00000-0  91729-4 0  9996
2 41980  97.3218 304.7040 0007233 187.6705 172.4425 15.28282262251664
1 41980U 17008AJ  21237.91995083  .00003819  00000-0  14121-3 0  9990
2 41980  97.3215 305.1549 0007317 185.8227 174.2929 15.28288512251733
1 41980U 17008AJ  21238.18185092  .00003899  00000-0  14407-3 0  9996
2 41980  97.3213 305.4123 0007348 184.9046 175.2123 15.28290326251772
1 41980U 17008AJ  21238.77112474  .00004175  00000-0  15406-3 0  9993
2 41980  97.3212 305.9915 0007417 182.8666 177.2533 15.28294969251861
1 41980U 17008AJ  21239.16397368  .00003979  00000-0  14695-3 0  9994
2 41980  97.3211 306.3776 0007459 181.4819 178.6400 15.28296742251916
1 41980U 17008AJ  21239.49134687  .00003909  00000-0  14441-3 0  9995
2 41980  97.3210 306.6993 0007502 180.3354 179.7882 15.28298754251977
1 41980U 17008AJ  21240.14608938  .00008106  00000-0  29632-3 0  9996
2 41980  97.3209 307.3429 0007555 178.0826 182.0444 15.28314174252071
1 41980U 17008AJ  21240.86630016  .00011118  00000-0  40510-3 0  9992
2 41980  97.3206 308.0507 0007659 175.5504 184.5806 15.28328270252186
1 41980U 17008AJ  21241.45555882  .00011983  00000-0  43622-3 0  9992
2 41980  97.3206 308.6298 0007733 173.7295 186.4043 15.28340343252278
1 41980U 17008AJ  21241.84839683  .00011012  00000-0  40108-3 0  9998
2 41980  97.3206 309.0159 0007777 172.4695 187.6663 15.28344130252333
1 41980U 17008AJ  21242.11028762  .00010687  00000-0  38929-3 0  9992
2 41980  97.3206 309.2732 0007795 171.6454 188.4917 15.28347758252369
1 41980U 17008AJ  21242.50312522  .00008977  00000-0  32749-3 0  9998
2 41980  97.3206 309.6593 0007828 170.4200 189.7190 15.28349249252433
1 41980U 17008AJ  21242.83049028  .00005137  00000-0  18864-3 0  9999
2 41980  97.3208 309.9810 0007870 169.3283 190.8125 15.28343671252484
1 41980U 17008AJ  21243.15785451  .00003687  00000-0  13617-3 0  9991
2 41980  97.3208 310.3027 0007905 168.1712 191.9715 15.28342740252532
1 41980U 17008AJ  21243.74710814  .00003898  00000-0  14378-3 0  9996
2 41980  97.3209 310.8819 0007965 166.1389 194.0071 15.28346926252620
1 41980U 17008AJ  21243.94352679  .00003189  00000-0  11813-3 0  9993
2 41980  97.3209 311.0749 0007988 165.5213 194.6257 15.28345557252642
1 41980U 17008AJ  21244.13994437  .00003094  00000-0  11469-3 0  9991
2 41980  97.3209 311.2680 0007987 165.0003 195.1475 15.28346806252689
1 41980U 17008AJ  21244.92561328  .00003349  00000-0  12388-3 0  9991
2 41980  97.3209 312.0402 0008078 162.4191 197.7330 15.28351928252804
1 41980U 17008AJ  21245.12202996  .00003443  00000-0  12728-3 0  9990
2 41980  97.3209 312.2332 0008102 161.8051 198.3480 15.28353470252823
1 41980U 17008AJ  21245.44939158  .00002837  00000-0  10534-3 0  9991
2 41980  97.3210 312.5550 0008141 160.7043 199.4506 15.28353182252889
1 41980U 17008AJ  21245.64580801  .00002907  00000-0  10789-3 0  9990
2 41980  97.3210 312.7481 0008160 160.0774 200.0786 15.28354593252919
1 41980U 17008AJ  21246.16958513  .00002435  00000-0  90787-4 0  9990
2 41980  97.3209 313.2628 0008210 158.4412 201.7175 15.28355790252990
1 41980U 17008AJ  21246.62788904  .00002628  00000-0  97780-4 0  9990
2 41980  97.3210 313.7132 0008260 157.0066 203.1545 15.28358907253050
1 41980U 17008AJ  21246.62788904  .00002628  00000-0  97780-4 0  9990
2 41980  97.3210 313.7132 0008260 157.0066 203.1545 15.28358907253061
1 41980U 17008AJ  21247.47902312  .00002667  00000-0  99168-4 0  9990
2 41980  97.3210 314.5498 0008325 154.3702 205.7952 15.28363501253194
1 41980U 17008AJ  21248.00279656  .00002763  00000-0  10263-3 0  9993
2 41980  97.3209 315.0646 0008372 152.6966 207.4715 15.28366595253268
1 41980U 17008AJ  21248.46109781  .00002746  00000-0  10199-3 0  9993
2 41980  97.3208 315.5151 0008422 151.2504 208.9201 15.28368862253346
